{
"type": "FeatureCollection",
"name": "bg_zones1970_buff20km",
"crs": { "type": "name", "properties": { "name": "urn:ogc:def:crs:EPSG::7801" } },
"features": [
{ "type": "Feature", "properties": { "OBJECTID": 901, "M100000": 13, "M50000": "Ã", "M25000": "â", "LABEL": "Ê-9-13-Ã-â", "CLIST": 9, "SHAPE_Leng": 34023.516700699998, "SHAPE_Area": 70091450.595899999, "ENLBL": "asfg" }, "geometry": { "type": "MultiPolygon", "coordinates": [ [ [ [ 216218.667029635806102, 4655451.024283055216074 ], [ 206221.941010788956191, 4655700.750183528289199 ], [ 207090.558726276853122, 4690644.251106651499867 ], [ 207950.085819212778006, 4725589.531677295453846 ], [ 217948.101149085559882, 4725344.941043057478964 ], [ 218072.365680132468697, 4730381.759160310961306 ], [ 218319.162908645987045, 4740377.666043002158403 ], [ 218565.898163786856458, 4750373.476582269184291 ], [ 219424.002712851972319, 4785321.526903357356787 ], [ 249406.131539339054143, 4784588.697748213075101 ], [ 249650.129260061832611, 4794583.758883921429515 ], [ 259645.570360131852794, 4794339.800491762347519 ], [ 259816.550857726600952, 4801342.754523742944002 ], [ 286296.398174859350547, 4800687.877681585028768 ], [ 294785.208493458980229, 4800477.624500827863812 ], [ 296293.151810103096068, 4800440.259412189945579 ], [ 304781.175888060999569, 4800229.846620060503483 ], [ 306289.912794916599523, 4800192.428489454090595 ], [ 314777.138868064212147, 4799981.85610010754317 ], [ 316286.639075330807827, 4799944.389006325043738 ], [ 324773.091043989406899, 4799733.657135682180524 ], [ 326283.374799024662934, 4799696.138873808085918 ], [ 334769.029702680651098, 4799485.247961632907391 ], [ 336280.084261509240605, 4799447.680190533399582 ], [ 344764.978507743857335, 4799236.633141074329615 ], [ 346276.828147518332116, 4799199.012480434030294 ], [ 354760.908662890491541, 4798987.810587950050831 ], [ 356273.538070875452831, 4798950.139684838242829 ], [ 364756.829964880715124, 4798738.782243830151856 ], [ 366270.232489198911935, 4798701.061538631096482 ], [ 374752.74830634589307, 4798489.550226732157171 ], [ 376266.932306282804348, 4798451.778749414719641 ], [ 386302.649958581023384, 4798201.318922359496355 ], [ 409648.263466801377945, 4794634.485705406405032 ], [ 409067.270884944591671, 4770947.824379182420671 ], [ 408937.885756210598629, 4765689.144763711839914 ], [ 408815.026990581303835, 4760689.299596817232668 ], [ 413815.058730713033583, 4760567.278310355730355 ], [ 423810.883027885167394, 4760323.407135171815753 ], [ 433806.707794703077525, 4760079.576599549502134 ], [ 443802.535694791411515, 4759835.788159178569913 ], [ 453798.367536831938196, 4759592.040265786461532 ], [ 463794.200455198704731, 4759348.333534776233137 ], [ 471827.13787458371371, 4759152.525497215799987 ], [ 498782.503676066931803, 4758495.007711058482528 ], [ 498174.662909714272246, 4733496.192801405675709 ], [ 497956.145439044979867, 4724566.183965068310499 ], [ 497930.11064528056886, 4723502.884878751821816 ], [ 497711.427451806259342, 4714563.876935693435371 ], [ 497685.550619593414012, 4713506.799353408627212 ], [ 497466.766946112271398, 4704561.51867329608649 ], [ 497441.047132865176536, 4703510.614432520233095 ], [ 497222.164252339454833, 4694559.106698576360941 ], [ 497196.600503562542144, 4693514.32719018496573 ], [ 496977.618604603107087, 4684556.639453587122262 ], [ 496952.210086084262002, 4683517.942746497690678 ], [ 496733.13150225544814, 4674554.122519281692803 ], [ 496707.875990431813989, 4673521.445615903474391 ], [ 496488.702210343035404, 4664551.55328842997551 ], [ 496463.598765517235734, 4663524.848316268995404 ], [ 496244.330080222163815, 4654548.928950526751578 ], [ 496219.377801068185363, 4653528.151372098363936 ], [ 496000.01545770507073, 4644546.251342103816569 ], [ 495975.21223609225126, 4643531.344743028283119 ], [ 495755.758877572778147, 4634543.524583259597421 ], [ 495731.103637170570437, 4633534.435651159845293 ], [ 495511.55849361163564, 4624540.742022370919585 ], [ 495487.050534201320261, 4623537.43118152115494 ], [ 495267.416953207924962, 4614537.910110515542328 ], [ 495243.053858531056903, 4613540.311925402842462 ], [ 495023.331385426630732, 4604535.023990664631128 ], [ 494999.112452277680859, 4603543.097175242379308 ], [ 494779.30347315419931, 4594532.087536308914423 ], [ 494755.227639076358173, 4593545.781291572377086 ], [ 494535.332516768015921, 4584529.102322925813496 ], [ 494511.398890352807939, 4583548.367791957221925 ], [ 494458.946239557932131, 4581396.064800342544913 ], [ 493656.500057174707763, 4548547.356173887848854 ], [ 458655.172522795852274, 4549405.731511620804667 ], [ 448657.256560986395925, 4549651.599068412557244 ], [ 438659.347339237749111, 4549897.628217509947717 ], [ 403664.268630069331266, 4550761.127327238209546 ], [ 403911.51621847396018, 4560758.861710126511753 ], [ 383911.95826345810201, 4561252.172879717312753 ], [ 383665.551657120406162, 4551254.827649374492466 ], [ 348678.398504628799856, 4552119.104510216042399 ], [ 338680.540095136268064, 4552366.738036967813969 ], [ 328682.684397756529506, 4552614.530860433354974 ], [ 318684.831877993652597, 4552862.485877124592662 ], [ 308686.984758546343073, 4553110.600104101002216 ], [ 298689.140619246056303, 4553358.8756616236642 ], [ 288691.299990614177659, 4553607.311552061699331 ], [ 253722.265494629973546, 4554478.52258298266679 ], [ 254591.203157199692214, 4589440.822559526190162 ], [ 254838.476343703601742, 4599438.143704440444708 ], [ 254962.969946966622956, 4604468.076066323556006 ], [ 254959.170955252542626, 4604468.170831865631044 ], [ 255456.17820792394923, 4624435.393647073768079 ], [ 255456.850223411427578, 4624462.676778482273221 ], [ 245458.556182714819442, 4624711.985076912678778 ], [ 245707.878986968687968, 4634708.920604143291712 ], [ 225716.237723328813445, 4635207.737342190928757 ], [ 225965.818357802694663, 4645204.616369741968811 ], [ 215968.989877260639332, 4645454.245231281965971 ], [ 216218.667029635806102, 4655451.024283055216074 ] ] ] ] } },
{ "type": "Feature", "properties": { "OBJECTID": 597, "M100000": 14, "M50000": "Â", "M25000": "ã", "LABEL": "Ê-7-14-Â-ã", "CLIST": 7, "SHAPE_Leng": 39982.455242000011, "SHAPE_Area": 99912295.444999993, "ENLBL": "asfg" }, "geometry": { "type": "MultiPolygon", "coordinates": [ [ [ [ 481071.610829623590689, 4745924.199433203786612 ], [ 451078.266591529652942, 4745661.289847469888628 ], [ 450769.034740678733215, 4780658.141405276022851 ], [ 450680.089187211764511, 4790657.199170647189021 ], [ 450591.076348557369784, 4800656.500836509279907 ], [ 450501.995258874550927, 4810656.04571514390409 ], [ 450412.847900012216996, 4820655.841303579509258 ], [ 450323.632413129147608, 4830655.877515880391002 ], [ 450009.254946647095494, 4865659.937606945633888 ], [ 485016.569129952811636, 4865974.238336095586419 ], [ 490011.358338416321203, 4866018.752315452322364 ], [ 489922.178725173231214, 4876019.91203242354095 ], [ 499923.545631265908014, 4876108.969927283935249 ], [ 499834.608796443266328, 4886110.462368411943316 ], [ 509836.229978857620154, 4886199.27663348801434 ], [ 509747.537922015588265, 4896201.026632475666702 ], [ 519749.413914566102903, 4896289.594897469505668 ], [ 519660.968125608458649, 4906291.594424865208566 ], [ 554678.499981036991812, 4906598.834463735111058 ], [ 559668.487718432210386, 4906642.234936793334782 ], [ 559581.228386959992349, 4916644.220979903824627 ], [ 594601.747829137952067, 4916947.221073675900698 ], [ 604604.22339984937571, 4917032.855467073619366 ], [ 614606.700465921545401, 4917118.17832272220403 ], [ 624609.178526173927821, 4917203.188306547701359 ], [ 634611.655384387122467, 4917287.887081557884812 ], [ 644614.132836024509743, 4917372.273407059721649 ], [ 679634.625947664608248, 4917664.565138622187078 ], [ 679717.393653825041838, 4907662.565111453644931 ], [ 684707.424749710713513, 4907703.988565728068352 ], [ 694709.645396236679517, 4907786.819166312925518 ], [ 729726.57644297007937, 4908073.771142238751054 ], [ 729889.435516752651893, 4888069.746150527149439 ], [ 739891.377105969237164, 4888150.9863993646577 ], [ 739972.494212384335697, 4878149.598875877447426 ], [ 744966.413171671680175, 4878190.144676117226481 ], [ 779975.834798457333818, 4878472.034594731405377 ], [ 780257.454502686974593, 4843466.692111489363015 ], [ 780338.480896542430855, 4833466.40625412017107 ], [ 780419.57521022122819, 4823466.36759924236685 ], [ 780705.397688664263114, 4788465.003503121435642 ], [ 770706.263222175068222, 4788382.730417891405523 ], [ 770788.659431799780577, 4778383.715289040468633 ], [ 740793.288468840997666, 4778135.828366371802986 ], [ 740876.290662982268259, 4768137.176621723920107 ], [ 730877.218187382910401, 4768054.047295872122049 ], [ 730918.540951783652417, 4763062.544052143581212 ], [ 731209.480317592970096, 4728060.311801175586879 ], [ 705749.26695676066447, 4727847.506121564656496 ], [ 696206.849077555467375, 4727767.766018365509808 ], [ 695751.009478177409619, 4727763.948106460273266 ], [ 686209.061704771826044, 4727684.038404097780585 ], [ 685752.753841126454063, 4727680.208462402224541 ], [ 676211.272150070522912, 4727600.127160814590752 ], [ 675754.498670677654445, 4727596.28522686753422 ], [ 666213.475325281615369, 4727516.035360297188163 ], [ 665756.254435755079612, 4727512.18160420935601 ], [ 656215.70574238023255, 4727431.761434806510806 ], [ 655758.049607416498475, 4727427.894978145137429 ], [ 646217.905494369450025, 4727347.304057497531176 ], [ 645759.798768492182717, 4727343.425762650556862 ], [ 636220.102730443933979, 4727262.665701664052904 ], [ 635761.558533718110994, 4727258.775682659819722 ], [ 626222.325889438274316, 4727177.844835105352104 ], [ 625763.358555656042881, 4727173.942237074486911 ], [ 616224.518710241653025, 4727092.842292360030115 ], [ 615765.113829339621589, 4727088.927980394102633 ], [ 606226.712733820662834, 4727007.657661288045347 ], [ 605766.881740067969076, 4727003.731740509159863 ], [ 596228.934470213600434, 4726922.290526618249714 ], [ 595768.684010191936977, 4726918.352026696316898 ], [ 586231.126113598118536, 4726836.74181015510112 ], [ 585770.448439549305476, 4726832.791675671003759 ], [ 576233.347685596090741, 4726751.010449098423123 ], [ 575772.26292452425696, 4726747.047847289592028 ], [ 566235.540311750257388, 4726665.097429160960019 ], [ 565774.02775900659617, 4726661.123159662820399 ], [ 556237.737059246981516, 4726579.002551474608481 ], [ 555775.805023399181664, 4726575.016665071249008 ], [ 546239.961764507344924, 4726492.725559153594077 ], [ 545777.61852110887412, 4726488.72712689358741 ], [ 536242.161467959638685, 4726406.265597926452756 ], [ 535779.39409590838477, 4726402.255472468212247 ], [ 533457.182347340276465, 4726382.131156904622912 ], [ 526244.378348850179464, 4726319.624663048423827 ], [ 516246.595950348244514, 4726232.801271443255246 ], [ 481246.235504112264607, 4725928.194071083329618 ], [ 481071.610829623590689, 4745924.199433203786612 ] ] ] ] } },
{ "type": "Feature", "properties": { "OBJECTID": 261, "M100000": 12, "M50000": "À", "M25000": "ã", "LABEL": "Ê-5-12-À-ã", "CLIST": 5, "SHAPE_Leng": 30477.712529699998, "SHAPE_Area": 53992741.312700003, "ENLBL": "asfg" }, "geometry": { "type": "MultiPolygon", "coordinates": [ [ [ [ 444154.81200778123457, 4569872.887637682259083 ], [ 444128.920182058762293, 4569872.624281557276845 ], [ 444990.378773115691729, 4604768.481863604858518 ], [ 445014.782422035990749, 4605760.244377890601754 ], [ 445236.143662080692593, 4614764.678070168942213 ], [ 445260.641518280550372, 4615762.113391733728349 ], [ 445481.458761696470901, 4624760.792782292701304 ], [ 445506.053452503576409, 4625763.961979797109962 ], [ 445726.328254860767629, 4634756.816676679067314 ], [ 445751.01834881643299, 4635765.734298569150269 ], [ 445970.750879297323991, 4644752.757789333350956 ], [ 445995.538986632949673, 4645767.484496735967696 ], [ 446214.730894735606853, 4654748.609867070801556 ], [ 446239.615587137755938, 4655769.160451631993055 ], [ 446458.266793014539871, 4664744.370833455584943 ], [ 446483.249323431635275, 4665770.793253259733319 ], [ 446701.361232027993537, 4674740.050663475878537 ], [ 446726.444171964540146, 4675772.399284593760967 ], [ 446944.0174786321586, 4684735.641562527045608 ], [ 446969.198167364345863, 4685773.925196846015751 ], [ 447186.234997718653176, 4694731.138555260375142 ], [ 447211.514545532525517, 4695775.397877855226398 ], [ 447428.01542183815036, 4704726.55397635884583 ], [ 447453.395146608352661, 4705776.83490527048707 ], [ 447669.360311216209084, 4714721.885093899443746 ], [ 447694.841386185376905, 4715778.231155137531459 ], [ 447910.270757275749929, 4724717.121821767650545 ], [ 447935.853289981780108, 4725779.568696005269885 ], [ 448706.172406386875082, 4757866.014729617163539 ], [ 471880.588172253337689, 4759072.933914133347571 ], [ 473289.802620685659349, 4759146.313033795915544 ], [ 474445.027788587438408, 4759206.465530257672071 ], [ 481195.409265275462531, 4759557.939641210250556 ], [ 481550.096504697692581, 4775931.264327110722661 ], [ 505798.215533339011017, 4776143.385318852029741 ], [ 525335.457308665500022, 4776322.259484671987593 ], [ 533012.103055055020377, 4776392.410768152214587 ], [ 535334.373185174306855, 4776413.617879520170391 ], [ 535797.369631489389576, 4776417.845508719794452 ], [ 545333.315181554644369, 4776504.850132354535162 ], [ 545795.915182244614698, 4776509.067627573385835 ], [ 555332.242574018775485, 4776595.956200748682022 ], [ 555794.455490032327361, 4776600.163690617308021 ], [ 565331.163413964211941, 4776686.934549428522587 ], [ 565792.927294092136435, 4776691.133498699404299 ], [ 575330.108498841524124, 4776777.787895280867815 ], [ 575791.477898936835118, 4776781.976829251274467 ], [ 585329.0297431119252, 4776868.516247693449259 ], [ 585789.984725159127265, 4776872.696016774512827 ], [ 595327.971741080051288, 4776959.118519190698862 ], [ 595788.527755993534811, 4776963.288278443738818 ], [ 605326.903901729965582, 4777049.595977293327451 ], [ 605787.066796800587326, 4777053.755796351470053 ], [ 615325.829161008121446, 4777139.947185174562037 ], [ 615785.539529100758955, 4777144.098564044572413 ], [ 625324.775804434088059, 4777230.175033027306199 ], [ 625784.082808199105784, 4777234.316418153233826 ], [ 635323.709034527884796, 4777320.278832907788455 ], [ 635782.589100861921906, 4777324.411051539704204 ], [ 645322.634989574551582, 4777410.259329309687018 ], [ 645781.083718565758318, 4777414.382330866530538 ], [ 655321.585342515725642, 4777500.116522682830691 ], [ 655779.622265884652734, 4777504.229499065317214 ], [ 665320.518044285126962, 4777589.851761341094971 ], [ 665778.123062124475837, 4777593.955559336580336 ], [ 675319.452445795643143, 4777679.464032881893218 ], [ 675776.612084983848035, 4777683.558525673113763 ], [ 685318.385748868109658, 4777768.95612833276391 ], [ 685775.098993432708085, 4777773.041311301290989 ], [ 695317.337975197820924, 4777858.327068634331226 ], [ 695773.625752379302867, 4777862.402134452015162 ], [ 730280.915443392586894, 4778169.893369313329458 ], [ 730545.182875796221197, 4753117.673951420001686 ], [ 730600.489537224522792, 4747892.837892799638212 ], [ 730706.324749538325705, 4737894.312980715185404 ], [ 730812.221891226712614, 4727895.736971538513899 ], [ 730918.179093198152259, 4717897.10593234281987 ], [ 731024.197385300882161, 4707898.426863530650735 ], [ 731130.275930046453141, 4697899.694223291240633 ], [ 731183.242645060759969, 4692906.932464540936053 ], [ 741182.5032386216335, 4693012.568675916641951 ], [ 741553.630666073877364, 4658010.358751936815679 ], [ 741927.477864924119785, 4623005.865795196965337 ], [ 706920.922578070079908, 4622632.002049949020147 ], [ 701931.945835455786437, 4622578.906893076375127 ], [ 702038.693571399198845, 4612579.969063826836646 ], [ 642018.894177128560841, 4611943.61933265440166 ], [ 641913.612598997307941, 4621942.640452700667083 ], [ 636940.727442872477695, 4621890.186965432018042 ], [ 621939.049268413917162, 4621731.68254354968667 ], [ 622044.894152468885295, 4611732.733452938497066 ], [ 612045.633407486602664, 4611626.911418413743377 ], [ 612151.430394017486833, 4601627.624783334322274 ], [ 602152.11459557514172, 4601521.853808727115393 ], [ 602257.859334720415063, 4591522.51506903860718 ], [ 582259.103260010713711, 4591311.404043983668089 ], [ 582311.930593119584955, 4586325.243273065425456 ], [ 582682.728084206581116, 4551311.883737651631236 ], [ 562683.111320743220858, 4551100.827910176478326 ], [ 562788.707515414687805, 4541101.705430555157363 ], [ 527773.691453641746193, 4540733.976500833407044 ], [ 517773.982893703738227, 4540629.62939506676048 ], [ 507774.273848861223087, 4540525.394115103408694 ], [ 497774.56446264492115, 4540421.268546829000115 ], [ 487774.85230354272062, 4540317.253593979403377 ], [ 477775.1382140587084, 4540213.349229965358973 ], [ 443433.928571882890537, 4539858.773786948062479 ], [ 444154.81200778123457, 4569872.887637682259083 ] ] ] ] } },
{ "type": "Feature", "properties": { "OBJECTID": 1, "M100000": 12, "M50000": "Ã", "M25000": "ã", "LABEL": "Ê-3-12-Ã-ã", "CLIST": 3, "SHAPE_Leng": 40039.484802600011, "SHAPE_Area": 100197521.35600001, "ENLBL": "asfg" }, "geometry": { "type": "MultiPolygon", "coordinates": [ [ [ [ 222133.955712116963696, 4829044.732436553575099 ], [ 212135.853492414811626, 4829317.220736091025174 ], [ 213752.721542731567752, 4889221.185898069292307 ], [ 223752.276596282841638, 4888953.691771733574569 ], [ 224288.288602313201409, 4908950.91801705956459 ], [ 234286.909502147405874, 4908683.291389350779355 ], [ 234554.650092706840951, 4918682.021280329674482 ], [ 244553.487687930057291, 4918414.167382964864373 ], [ 244821.455956478370354, 4928413.116230980493128 ], [ 279792.82973930897424, 4927473.16625752300024 ], [ 314771.361253298120573, 4926527.377754893153906 ], [ 314500.237501241499558, 4916528.853095775470138 ], [ 334499.698535956151318, 4915986.270811668597162 ], [ 333682.736615349771455, 4885990.483159927651286 ], [ 338695.346669004764408, 4885854.524505848996341 ], [ 348693.512663571396843, 4885583.166890137828887 ], [ 358691.670586457359605, 4885311.5274498173967 ], [ 393678.22832457855111, 4884358.152934880927205 ], [ 393405.164164082903881, 4874360.46854374371469 ], [ 398409.932546131080016, 4874223.885334779508412 ], [ 408407.821924794465303, 4873950.854608105495572 ], [ 418405.699520647875033, 4873677.54255357850343 ], [ 428403.568320552469231, 4873403.951764785684645 ], [ 438401.424779268389102, 4873130.078916336409748 ], [ 448399.26849444466643, 4872855.926859146915376 ], [ 458397.101212940237019, 4872581.494286136701703 ], [ 468394.919971832481679, 4872306.782009124755859 ], [ 499923.404926246963441, 4871438.295487430877984 ], [ 500224.256772944296245, 4837317.679909662343562 ], [ 500311.836328689940274, 4827309.96254101768136 ], [ 500399.113314013462514, 4817302.47320687584579 ], [ 500486.089462146279402, 4807295.214254451915622 ], [ 500537.275257355649956, 4801389.70306000392884 ], [ 501455.699179326766171, 4801364.398073109798133 ], [ 501309.066958910552785, 4796042.569390950724483 ], [ 506003.746151915809605, 4796082.555288564413786 ], [ 508849.659792706661392, 4795711.052908414974809 ], [ 509094.327348037390038, 4795679.113658616319299 ], [ 531509.694384804693982, 4792752.436916938051581 ], [ 531125.06724364683032, 4765859.053638657554984 ], [ 531052.392540614120662, 4760790.096465626731515 ], [ 531048.743611371377483, 4760535.691858765669167 ], [ 531237.262505045509897, 4760530.493334293365479 ], [ 530681.147108571371064, 4734976.190671877004206 ], [ 530168.105873611290008, 4711458.725138547830284 ], [ 505673.08929332223488, 4710436.789576536975801 ], [ 496777.902288349869195, 4710065.750297627411783 ], [ 495659.081284057348967, 4710019.084103833884001 ], [ 486782.481332766124979, 4709648.859990486875176 ], [ 485645.091017457598355, 4709601.425017087720335 ], [ 476787.044495940383058, 4709232.018053494393826 ], [ 475631.134198925690725, 4709183.816172114573419 ], [ 474222.333783375797793, 4709125.068716877140105 ], [ 473306.212749595928472, 4709086.877304355613887 ], [ 470499.02680112485541, 4709167.616183829493821 ], [ 463873.523793743166607, 4709358.182124427519739 ], [ 453879.146593034965917, 4709645.6638646395877 ], [ 443884.771707313950174, 4709933.165911061689258 ], [ 433890.394428015453741, 4710220.687516007572412 ], [ 423896.016576301422901, 4710508.226825566962361 ], [ 413901.643649484904017, 4710795.781101197004318 ], [ 403907.267909044690896, 4711083.349693058058619 ], [ 393912.891991572862025, 4711370.932012185454369 ], [ 383918.525365238660015, 4711658.523985464125872 ], [ 358673.046069606789388, 4712385.002823695540428 ], [ 358869.321332527324557, 4739752.649586326442659 ], [ 358933.787977726664394, 4748892.651608557440341 ], [ 355021.110013207246084, 4748991.387135408818722 ], [ 353508.603859041002579, 4749029.551457830704749 ], [ 345025.20475340570556, 4749243.573533387854695 ], [ 343513.474846625234932, 4749281.70613057911396 ], [ 335029.309235681546852, 4749495.677303178235888 ], [ 333518.376363415736705, 4749533.775364399887621 ], [ 325033.391766258166172, 4749747.696995765902102 ], [ 323523.233812222606502, 4749785.76383450999856 ], [ 315037.487812986713834, 4749999.630675285123289 ], [ 313528.112081450701226, 4750037.664744663983583 ], [ 305041.58100798149826, 4750251.477532740682364 ], [ 303532.972826124751009, 4750289.480883983895183 ], [ 295045.67798882862553, 4750503.238383852876723 ], [ 293537.860358172445558, 4750541.207089214585721 ], [ 260030.986248201486887, 4751384.427570915780962 ], [ 260484.18299815338105, 4767976.171160673722625 ], [ 250487.534268509101821, 4768249.645800699479878 ], [ 250760.866703970503295, 4778245.17001558560878 ], [ 240765.232018450536998, 4778518.394344907253981 ], [ 241038.348071060463553, 4788514.138146504759789 ], [ 231042.493704077904113, 4788787.145250484347343 ], [ 231587.332362054497935, 4808779.180760864168406 ], [ 221589.698935015127063, 4809051.947276515886188 ], [ 222133.955712116963696, 4829044.732436553575099 ] ] ] ] } }
]
}
